OBJECT_NAME,OBJECT_ID,EPOCH,MEAN_MOTION,ECCENTRICITY,INCLINATION,RA_OF_ASC_NODE,ARG_OF_PERICENTER,MEAN_ANOMALY,EPHEMERIS_TYPE,CLASSIFICATION_TYPE,NORAD_CAT_ID,ELEMENT_SET_NO,REV_AT_EPOCH,BSTAR,MEAN_MOTION_DOT,MEAN_MOTION_DDOT
ONEWEB-0475,2022-012AK,2026-07-13T11:54:36.432000,13.17648544,.00013824,87.9145,0.6389,110.0260,250.1021,0,U,51655,999,21715,.83549011E-4,.45E-6,0
ONEWEB-0490,2022-138A,2026-07-13T19:43:48.880128,13.19726175,.0002041,87.9192,299.6645,106.5318,253.6039,0,U,54113,999,18034,-.16593E-3,-.53E-6,0
ONEWEB-0492,2022-138B,2026-07-13T20:20:11.059008,13.19727445,.0002236,87.9184,299.6593,104.2078,255.9303,0,U,54114,999,18035,.18121E-4,.2E-6,0
ONEWEB-0495,2022-138C,2026-07-13T19:48:21.936960,13.19725516,.0002183,87.9167,299.6693,121.6652,238.4694,0,U,54115,999,18033,.13342E-3,.66E-6,0
ONEWEB-0497,2022-138D,2026-07-13T20:06:32.499360,13.19730428,.0001904,87.9193,299.6557,101.3159,258.8187,0,U,54116,999,18032,-.15673E-2,-.615E-5,0
ONEWEB-0499,2022-138E,2026-07-13T19:42:40.205088,13.19724513,.0001916,87.9183,299.6680,108.4088,251.7253,0,U,54117,999,18033,-.67973E-5,.1E-6,0
ONEWEB-0500,2022-138F,2026-07-13T19:46:05.985696,13.19725791,.000209,87.9202,299.6620,96.6455,263.4916,0,U,54118,999,18034,-.3062E-4,.1E-7,0
ONEWEB-0501,2022-138G,2026-07-13T20:29:19.322304,13.19725582,.0002052,87.9190,299.6583,112.5315,247.6035,0,U,54119,999,18032,-.98637E-4,-.27E-6,0
ONEWEB-0502,2022-138H,2026-07-13T20:08:48.944832,13.19736129,.0001886,87.9186,299.6509,107.6397,252.4942,0,U,54120,999,18034,.23019E-2,.935E-5,0
ONEWEB-0503,2022-138J,2026-07-13T19:52:54.856416,13.19726185,.0001766,87.9207,299.6564,95.0994,265.0341,0,U,54121,999,18033,-.64613E-4,-.13E-6,0
ONEWEB-0504,2022-138K,2026-07-13T19:34:43.125888,13.19726025,.0001874,87.9189,299.6654,108.9439,251.1897,0,U,54122,999,18034,-.24014E-3,-.83E-6,0
ONEWEB-0505,2022-138L,2026-07-13T17:40:57.798048,13.19727315,.0001906,87.9184,299.6824,114.5353,245.5979,0,U,54123,999,18031,-.59105E-4,-.11E-6,0
ONEWEB-0506,2022-138M,2026-07-13T18:53:47.657760,13.19725196,.0002002,87.9195,299.6689,110.0642,250.0706,0,U,54124,999,18031,.54327E-4,.35E-6,0
ONEWEB-0507,2022-138N,2026-07-13T19:23:20.457024,13.19726402,.0002036,87.9186,299.6743,106.7696,253.3660,0,U,54125,999,18036,-.33416E-4,0,0
ONEWEB-0508,2022-138P,2026-07-13T19:18:47.902176,13.19726135,.0002213,87.9161,299.6780,120.2852,239.8499,0,U,54126,999,18034,.54201E-3,.23E-5,0
ONEWEB-0509,2022-138Q,2026-07-13T20:31:34.313664,13.19724241,.0002016,87.9194,299.6571,105.2196,254.9160,0,U,54127,999,18032,-.64387E-5,.1E-6,0
ONEWEB-0510,2022-138R,2026-07-13T17:20:36.017376,13.20770016,.0002002,87.9176,269.1507,92.9569,267.1794,0,U,54128,999,18278,.41128E-4,.3E-6,0
ONEWEB-0511,2022-138S,2026-07-13T18:37:50.026080,13.19723506,.0001725,87.9191,299.6740,102.9640,257.1685,0,U,54129,999,18034,.70769E-4,.41E-6,0
ONEWEB-0512,2022-138T,2026-07-13T20:15:38.625120,13.19726729,.0001874,87.9182,299.6640,111.5951,248.5381,0,U,54130,999,18032,-.14835E-3,-.46E-6,0
ONEWEB-0513,2022-138U,2026-07-13T20:07:56.869824,13.20269331,.0001486,87.9192,299.6058,125.3876,234.7396,0,U,54131,999,18023,-.39941E-4,-.3E-7,0
ONEWEB-0514,2022-138V,2026-07-13T20:38:23.915328,13.19726127,.0001954,87.9189,299.6573,96.6314,263.5042,0,U,54132,999,18034,.16468E-3,.79E-6,0
ONEWEB-0515,2022-138W,2026-07-13T17:01:14.008224,13.20771723,.0002779,87.9192,269.1470,88.4279,271.7173,0,U,54133,999,18280,.16935E-3,.82E-6,0
ONEWEB-0516,2022-138X,2026-07-13T20:01:59.623968,13.19723976,.0002127,87.9187,299.6655,102.8763,257.2607,0,U,54134,999,18034,-.11781E-4,.8E-7,0
ONEWEB-0517,2022-138Y,2026-07-13T19:32:26.600064,13.19726045,.0001775,87.9203,299.6628,93.8728,266.2608,0,U,54135,999,18034,.41999E-4,.3E-6,0
ONEWEB-0518,2022-138Z,2026-07-13T18:10:33.110688,13.19723914,.00022,87.9184,299.6836,103.7587,256.3790,0,U,54136,999,18033,-.15219E-4,.7E-7,0
ONEWEB-0519,2022-138AA,2026-07-13T20:36:06.331968,13.19723610,.0001811,87.9191,299.6565,98.0724,262.0614,0,U,54137,999,18035,.14044E-3,.69E-6,0
ONEWEB-0520,2022-138AB,2026-07-13T19:36:59.483232,13.19726842,.0002046,87.9193,299.6654,110.0249,250.1104,0,U,54138,999,18033,.26666E-4,.24E-6,0
ONEWEB-0521,2022-138AC,2026-07-13T20:24:44.165088,13.19726907,.0001817,87.9195,299.6475,96.1751,263.9588,0,U,54139,999,18028,.88831E-4,.49E-6,0
ONEWEB-0522,2022-138AD,2026-07-13T19:55:09.537600,13.19733985,.0001933,87.9208,299.6519,120.8172,239.3151,0,U,54140,999,18032,-.29915E-2,-.1185E-4,0
ONEWEB-0523,2022-138AE,2026-07-13T16:41:48.930144,13.20772563,.0002323,87.9183,269.1598,79.7654,280.3741,0,U,54141,999,18280,.13748E-3,.69E-6,0
ONEWEB-0524,2022-138AF,2026-07-13T18:16:21.978336,13.20772493,.000292,87.9187,269.1427,94.6169,265.5298,0,U,54142,999,18281,.28934E-4,.25E-6,0
