ONEWEB-0475             
1 51655U 22012AK  26194.49625500  .00000045  00000+0  83549-4 0  9993
2 51655  87.9145   0.6389 0001382 110.0260 250.1021 13.17648544217158
ONEWEB-0490             
1 54113U 22138A   26194.82209352 -.00000053  00000+0 -16593-3 0  9999
2 54113  87.9192 299.6645 0002041 106.5318 253.6039 13.19726175180340
ONEWEB-0492             
1 54114U 22138B   26194.84735022  .00000020  00000+0  18121-4 0  9992
2 54114  87.9184 299.6593 0002236 104.2078 255.9303 13.19727445180359
ONEWEB-0495             
1 54115U 22138C   26194.82525390  .00000066  00000+0  13342-3 0  9995
2 54115  87.9167 299.6693 0002183 121.6652 238.4694 13.19725516180338
ONEWEB-0497             
1 54116U 22138D   26194.83787615 -.00000615  00000+0 -15673-2 0  9997
2 54116  87.9193 299.6557 0001904 101.3159 258.8187 13.19730428180324
ONEWEB-0499             
1 54117U 22138E   26194.82129867  .00000010  00000+0 -67973-5 0  9997
2 54117  87.9183 299.6680 0001916 108.4088 251.7253 13.19724513180338
ONEWEB-0500             
1 54118U 22138F   26194.82368039  .00000001  00000+0 -30620-4 0  9992
2 54118  87.9202 299.6620 0002090  96.6455 263.4916 13.19725791180341
ONEWEB-0501             
1 54119U 22138G   26194.85369586 -.00000027  00000+0 -98637-4 0  9995
2 54119  87.9190 299.6583 0002052 112.5315 247.6035 13.19725582180329
ONEWEB-0502             
1 54120U 22138H   26194.83945538  .00000935  00000+0  23019-2 0  9998
2 54120  87.9186 299.6509 0001886 107.6397 252.4942 13.19736129180345
ONEWEB-0503             
1 54121U 22138J   26194.82841269 -.00000013  00000+0 -64613-4 0  9990
2 54121  87.9207 299.6564 0001766  95.0994 265.0341 13.19726185180334
ONEWEB-0504             
1 54122U 22138K   26194.81577692 -.00000083  00000+0 -24014-3 0  9993
2 54122  87.9189 299.6654 0001874 108.9439 251.1897 13.19726025180348
ONEWEB-0505             
1 54123U 22138L   26194.73678007 -.00000011  00000+0 -59105-4 0  9998
2 54123  87.9184 299.6824 0001906 114.5353 245.5979 13.19727315180315
ONEWEB-0506             
1 54124U 22138M   26194.78735715  .00000035  00000+0  54327-4 0  9999
2 54124  87.9195 299.6689 0002002 110.0642 250.0706 13.19725196180311
ONEWEB-0507             
1 54125U 22138N   26194.80787566  .00000000  00000+0 -33416-4 0  9993
2 54125  87.9186 299.6743 0002036 106.7696 253.3660 13.19726402180362
ONEWEB-0508             
1 54126U 22138P   26194.80472109  .00000230  00000+0  54201-3 0  9996
2 54126  87.9161 299.6780 0002213 120.2852 239.8499 13.19726135180349
ONEWEB-0509             
1 54127U 22138Q   26194.85525826  .00000010  00000+0 -64387-5 0  9992
2 54127  87.9194 299.6571 0002016 105.2196 254.9160 13.19724241180326
ONEWEB-0510             
1 54128U 22138R   26194.72263909  .00000030  00000+0  41128-4 0  9998
2 54128  87.9176 269.1507 0002002  92.9569 267.1794 13.20770016182783
ONEWEB-0511             
1 54129U 22138S   26194.77627345  .00000041  00000+0  70769-4 0  9997
2 54129  87.9191 299.6740 0001725 102.9640 257.1685 13.19723506180349
ONEWEB-0512             
1 54130U 22138T   26194.84419705 -.00000046  00000+0 -14835-3 0  9994
2 54130  87.9182 299.6640 0001874 111.5951 248.5381 13.19726729180321
ONEWEB-0513             
1 54131U 22138U   26194.83885266 -.00000003  00000+0 -39941-4 0  9992
2 54131  87.9192 299.6058 0001486 125.3876 234.7396 13.20269331180230
ONEWEB-0514             
1 54132U 22138V   26194.85999902  .00000079  00000+0  16468-3 0  9997
2 54132  87.9189 299.6573 0001954  96.6314 263.5042 13.19726127180345
ONEWEB-0515             
1 54133U 22138W   26194.70918991  .00000082  00000+0  16935-3 0  9994
2 54133  87.9192 269.1470 0002779  88.4279 271.7173 13.20771723182806
ONEWEB-0516             
1 54134U 22138X   26194.83471787  .00000008  00000+0 -11781-4 0  9990
2 54134  87.9187 299.6655 0002127 102.8763 257.2607 13.19723976180343
ONEWEB-0517             
1 54135U 22138Y   26194.81419676  .00000030  00000+0  41999-4 0  9996
2 54135  87.9203 299.6628 0001775  93.8728 266.2608 13.19726045180342
ONEWEB-0518             
1 54136U 22138Z   26194.75732767  .00000007  00000+0 -15219-4 0  9990
2 54136  87.9184 299.6836 0002200 103.7587 256.3790 13.19723914180333
ONEWEB-0519             
1 54137U 22138AA  26194.85840662  .00000069  00000+0  14044-3 0  9997
2 54137  87.9191 299.6565 0001811  98.0724 262.0614 13.19723610180351
ONEWEB-0520             
1 54138U 22138AB  26194.81735513  .00000024  00000+0  26666-4 0  9997
2 54138  87.9193 299.6654 0002046 110.0249 250.1104 13.19726842180331
ONEWEB-0521             
1 54139U 22138AC  26194.85051117  .00000049  00000+0  88831-4 0  9992
2 54139  87.9195 299.6475 0001817  96.1751 263.9588 13.19726907180286
ONEWEB-0522             
1 54140U 22138AD  26194.82997150 -.00001185  00000+0 -29915-2 0  9997
2 54140  87.9208 299.6519 0001933 120.8172 239.3151 13.19733985180325
ONEWEB-0523             
1 54141U 22138AE  26194.69570521  .00000069  00000+0  13748-3 0  9998
2 54141  87.9183 269.1598 0002323  79.7654 280.3741 13.20772563182801
ONEWEB-0524             
1 54142U 22138AF  26194.76136549  .00000025  00000+0  28934-4 0  9991
2 54142  87.9187 269.1427 0002920  94.6169 265.5298 13.20772493182812
